{"type": "FeatureCollection", "features": [ {"type": "Feature", "properties": {"norad_id": 66469, "name": "STARLINK-35451", "group": "last-30-days", "lat": -39.14005260691121, "lon": 41.94014502915657, "alt_km": 417.4247801444526, "timestamp": "2025-12-07T07:31:35.085411+00:00", "meta": {"OBJECT_NAME": "STARLINK-35451", "OBJECT_ID": "2025-262P", "EPOCH": "2025-12-07T00:00:02.000160", "MEAN_MOTION": 15.50615348, "ECCENTRICITY": 0.00014084, "INCLINATION": 43.0008, "RA_OF_ASC_NODE": 104.6234, "ARG_OF_PERICENTER": 269.2363, "MEAN_ANOMALY": 70.4727, "EPHEMERIS_TYPE": 0, "CLASSIFICATION_TYPE": "U", "NORAD_CAT_ID": 66469, "ELEMENT_SET_NO": 999, "REV_AT_EPOCH": 471, "BSTAR": -0.0017398773, "MEAN_MOTION_DOT": -0.00101233, "MEAN_MOTION_DDOT": 0}, "tle": {"line1": "1 66469U 25262P   25341.00002315 -.00101233  00000+0 -17399-2 0  9996", "line2": "2 66469  43.0008 104.6234 0001408 269.2363  70.4727 15.50615348  4719"}}, "geometry": {"type": "Point", "coordinates": [41.94014502915657, -39.14005260691121]}}, {"type": "Feature", "properties": {"norad_id": 66470, "name": "STARLINK-35655", "group": "last-30-days", "lat": -40.310458608946774, "lon": 37.23819048744831, "alt_km": 417.39027002677267, "timestamp": "2025-12-07T07:31:35.085421+00:00", "meta": {"OBJECT_NAME": "STARLINK-35655", "OBJECT_ID": "2025-262Q", "EPOCH": "2025-12-07T00:00:02.000160", "MEAN_MOTION": 15.50564759, "ECCENTRICITY": 0.00016041, "INCLINATION": 43.0007, "RA_OF_ASC_NODE": 104.6334, "ARG_OF_PERICENTER": 273.5015, "MEAN_ANOMALY": 62.4401, "EPHEMERIS_TYPE": 0, "CLASSIFICATION_TYPE": "U", "NORAD_CAT_ID": 66470, "ELEMENT_SET_NO": 999, "REV_AT_EPOCH": 471, "BSTAR": -0.0011252225, "MEAN_MOTION_DOT": -0.00065769, "MEAN_MOTION_DDOT": 0}, "tle": {"line1": "1 66470U 25262Q   25341.00002315 -.00065769  00000+0 -11252-2 0  9993", "line2": "2 66470  43.0007 104.6334 0001604 273.5015  62.4401 15.50564759  4710"}}, "geometry": {"type": "Point", "coordinates": [37.23819048744831, -40.310458608946774]}}, {"type": "Feature", "properties": {"norad_id": 66471, "name": "STARLINK-35569", "group": "last-30-days", "lat": -39.75031532119009, "lon": 39.604095809555886, "alt_km": 417.4921952906907, "timestamp": "2025-12-07T07:31:35.085433+00:00", "meta": {"OBJECT_NAME": "STARLINK-35569", "OBJECT_ID": "2025-262R", "EPOCH": "2025-12-07T00:00:02.000160", "MEAN_MOTION": 15.50640344, "ECCENTRICITY": 0.00013907, "INCLINATION": 43.0007, "RA_OF_ASC_NODE": 104.6286, "ARG_OF_PERICENTER": 264.4787, "MEAN_ANOMALY": 73.3066, "EPHEMERIS_TYPE": 0, "CLASSIFICATION_TYPE": "U", "NORAD_CAT_ID": 66471, "ELEMENT_SET_NO": 999, "REV_AT_EPOCH": 471, "BSTAR": -0.0025189639, "MEAN_MOTION_DOT": -0.00145718, "MEAN_MOTION_DDOT": 0}, "tle": {"line1": "1 66471U 25262R   25341.00002315 -.00145718  00000+0 -25190-2 0  9993", "line2": "2 66471  43.0007 104.6286 0001390 264.4787  73.3066 15.50640344  4717"}}, "geometry": {"type": "Point", "coordinates": [39.604095809555886, -39.75031532119009]}}, {"type": "Feature", "properties": {"norad_id": 66472, "name": "STARLINK-35567", "group": "last-30-days", "lat": -38.478758551563814, "lon": 44.25120263516364, "alt_km": 417.34896055728404, "timestamp": "2025-12-07T07:31:35.085457+00:00", "meta": {"OBJECT_NAME": "STARLINK-35567", "OBJECT_ID": "2025-262S", "EPOCH": "2025-12-07T00:00:02.000160", "MEAN_MOTION": 15.50645101, "ECCENTRICITY": 0.00015334, "INCLINATION": 43.0008, "RA_OF_ASC_NODE": 104.6185, "ARG_OF_PERICENTER": 267.0869, "MEAN_ANOMALY": 74.5295, "EPHEMERIS_TYPE": 0, "CLASSIFICATION_TYPE": "U", "NORAD_CAT_ID": 66472, "ELEMENT_SET_NO": 999, "REV_AT_EPOCH": 471, "BSTAR": -0.0026035276, "MEAN_MOTION_DOT": -0.00150534, "MEAN_MOTION_DDOT": 0}, "tle": {"line1": "1 66472U 25262S   25341.00002315 -.00150534  00000+0 -26035-2 0  9995", "line2": "2 66472  43.0008 104.6185 0001533 267.0869  74.5295 15.50645101  4719"}}, "geometry": {"type": "Point", "coordinates": [44.25120263516364, -38.478758551563814]}}, {"type": "Feature", "properties": {"norad_id": 66473, "name": "STARLINK-35568", "group": "last-30-days", "lat": -37.77611023619265, "lon": 46.50839271292539, "alt_km": 417.289520492498, "timestamp": "2025-12-07T07:31:35.085470+00:00", "meta": {"OBJECT_NAME": "STARLINK-35568", "OBJECT_ID": "2025-262T", "EPOCH": "2025-12-07T00:00:02.000160", "MEAN_MOTION": 15.50636363, "ECCENTRICITY": 0.00015748, "INCLINATION": 43.0008, "RA_OF_ASC_NODE": 104.6137, "ARG_OF_PERICENTER": 268.9654, "MEAN_ANOMALY": 74.5713, "EPHEMERIS_TYPE": 0, "CLASSIFICATION_TYPE": "U", "NORAD_CAT_ID": 66473, "ELEMENT_SET_NO": 999, "REV_AT_EPOCH": 471, "BSTAR": -0.0023575269, "MEAN_MOTION_DOT": -0.00136542, "MEAN_MOTION_DDOT": 0}, "tle": {"line1": "1 66473U 25262T   25341.00002315 -.00136542  00000+0 -23575-2 0  9995", "line2": "2 66473  43.0008 104.6137 0001574 268.9654  74.5713 15.50636363  4719"}}, "geometry": {"type": "Point", "coordinates": [46.50839271292539, -37.77611023619265]}}, {"type": "Feature", "properties": {"norad_id": 66474, "name": "STARLINK-35620", "group": "last-30-days", "lat": -37.02637727371733, "lon": 48.735125572884506, "alt_km": 417.32244631407957, "timestamp": "2025-12-07T07:31:35.085480+00:00", "meta": {"OBJECT_NAME": "STARLINK-35620", "OBJECT_ID": "2025-262U", "EPOCH": "2025-12-07T00:00:02.000160", "MEAN_MOTION": 15.50712883, "ECCENTRICITY": 0.00015198, "INCLINATION": 43.0008, "RA_OF_ASC_NODE": 104.609, "ARG_OF_PERICENTER": 266.6792, "MEAN_ANOMALY": 78.7411, "EPHEMERIS_TYPE": 0, "CLASSIFICATION_TYPE": "U", "NORAD_CAT_ID": 66474, "ELEMENT_SET_NO": 999, "REV_AT_EPOCH": 471, "BSTAR": -0.0044533585, "MEAN_MOTION_DOT": -0.00254505, "MEAN_MOTION_DDOT": 0}, "tle": {"line1": "1 66474U 25262U   25341.00002315 -.00254505  00000+0 -44534-2 0  9994", "line2": "2 66474  43.0008 104.6090 0001519 266.6792  78.7411 15.50712883  4718"}}, "geometry": {"type": "Point", "coordinates": [48.735125572884506, -37.02637727371733]}}, {"type": "Feature", "properties": {"norad_id": 66475, "name": "STARLINK-35538", "group": "last-30-days", "lat": -36.243358907570524, "lon": 50.89688699912541, "alt_km": 417.2317415477528, "timestamp": "2025-12-07T07:31:35.085491+00:00", "meta": {"OBJECT_NAME": "STARLINK-35538", "OBJECT_ID": "2025-262V", "EPOCH": "2025-12-07T00:00:02.000160", "MEAN_MOTION": 15.50644524, "ECCENTRICITY": 0.00016467, "INCLINATION": 43.0008, "RA_OF_ASC_NODE": 104.6044, "ARG_OF_PERICENTER": 266.0784, "MEAN_ANOMALY": 81.2879, "EPHEMERIS_TYPE": 0, "CLASSIFICATION_TYPE": "U", "NORAD_CAT_ID": 66475, "ELEMENT_SET_NO": 999, "REV_AT_EPOCH": 471, "BSTAR": -0.0025818455, "MEAN_MOTION_DOT": -0.00149305, "MEAN_MOTION_DDOT": 0}, "tle": {"line1": "1 66475U 25262V   25341.00002315 -.00149305  00000+0 -25818-2 0  9990", "line2": "2 66475  43.0008 104.6044 0001646 266.0784  81.2879 15.50644524  4717"}}, "geometry": {"type": "Point", "coordinates": [50.89688699912541, -36.243358907570524]}}, {"type": "Feature", "properties": {"norad_id": 66476, "name": "STARLINK-35372", "group": "last-30-days", "lat": -35.41760062048297, "lon": 53.024909449542925, "alt_km": 417.1820091234995, "timestamp": "2025-12-07T07:31:35.085501+00:00", "meta": {"OBJECT_NAME": "STARLINK-35372", "OBJECT_ID": "2025-262W", "EPOCH": "2025-12-07T00:00:02.000160", "MEAN_MOTION": 15.50640086, "ECCENTRICITY": 0.00017094, "INCLINATION": 43.0007, "RA_OF_ASC_NODE": 104.5992, "ARG_OF_PERICENTER": 265.8491, "MEAN_ANOMALY": 83.4389, "EPHEMERIS_TYPE": 0, "CLASSIFICATION_TYPE": "U", "NORAD_CAT_ID": 66476, "ELEMENT_SET_NO": 999, "REV_AT_EPOCH": 460, "BSTAR": -0.0025174247, "MEAN_MOTION_DOT": -0.00145634, "MEAN_MOTION_DDOT": 0}, "tle": {"line1": "1 66476U 25262W   25341.00002315 -.00145634  00000+0 -25174-2 0  9997", "line2": "2 66476  43.0007 104.5992 0001709 265.8491  83.4389 15.50640086  4607"}}, "geometry": {"type": "Point", "coordinates": [53.024909449542925, -35.41760062048297]}}, {"type": "Feature", "properties": {"norad_id": 66477, "name": "STARLINK-35354", "group": "last-30-days", "lat": -33.66114665707612, "lon": 57.14202468779871, "alt_km": 417.19473573424057, "timestamp": "2025-12-07T07:31:35.085510+00:00", "meta": {"OBJECT_NAME": "STARLINK-35354", "OBJECT_ID": "2025-262X", "EPOCH": "2025-12-07T00:00:02.000160", "MEAN_MOTION": 15.50644962, "ECCENTRICITY": 0.00014972, "INCLINATION": 43.0008, "RA_OF_ASC_NODE": 104.5889, "ARG_OF_PERICENTER": 269.6166, "MEAN_ANOMALY": 83.4991, "EPHEMERIS_TYPE": 0, "CLASSIFICATION_TYPE": "U", "NORAD_CAT_ID": 66477, "ELEMENT_SET_NO": 999, "REV_AT_EPOCH": 471, "BSTAR": -0.0025459104, "MEAN_MOTION_DOT": -0.0014727, "MEAN_MOTION_DDOT": 0}, "tle": {"line1": "1 66477U 25262X   25341.00002315 -.00147270  00000+0 -25459-2 0  9992", "line2": "2 66477  43.0008 104.5889 0001497 269.6166  83.4991 15.50644962  4717"}}, "geometry": {"type": "Point", "coordinates": [57.14202468779871, -33.66114665707612]}}, {"type": "Feature", "properties": {"norad_id": 66478, "name": "STARLINK-35283", "group": "last-30-days", "lat": -32.72980673704752, "lon": 59.142443810829086, "alt_km": 417.0654044855737, "timestamp": "2025-12-07T07:31:35.085520+00:00", "meta": {"OBJECT_NAME": "STARLINK-35283", "OBJECT_ID": "2025-262Y", "EPOCH": "2025-12-07T00:00:02.000160", "MEAN_MOTION": 15.50654386, "ECCENTRICITY": 0.00017107, "INCLINATION": 43.0008, "RA_OF_ASC_NODE": 104.5843, "ARG_OF_PERICENTER": 268.5855, "MEAN_ANOMALY": 86.4458, "EPHEMERIS_TYPE": 0, "CLASSIFICATION_TYPE": "U", "NORAD_CAT_ID": 66478, "ELEMENT_SET_NO": 999, "REV_AT_EPOCH": 471, "BSTAR": -0.0028904091, "MEAN_MOTION_DOT": -0.00166799, "MEAN_MOTION_DDOT": 0}, "tle": {"line1": "1 66478U 25262Y   25341.00002315 -.00166799  00000+0 -28904-2 0  9998", "line2": "2 66478  43.0008 104.5843 0001710 268.5855  86.4458 15.50654386  4711"}}, "geometry": {"type": "Point", "coordinates": [59.142443810829086, -32.72980673704752]}}]}